[{"OBJECT_NAME":"COSMOS 2497 (RODNIK-S 11)","OBJECT_ID":"2014-028B","EPOCH":"2026-03-09T23:41:24.231264","MEAN_MOTION":12.42874686,"ECCENTRICITY":0.00192237,"INCLINATION":82.4547,"RA_OF_ASC_NODE":172.5052,"ARG_OF_PERICENTER":290.3082,"MEAN_ANOMALY":69.5932,"EPHEMERIS_TYPE":0,"CLASSIFICATION_TYPE":"U","NORAD_CAT_ID":39762,"ELEMENT_SET_NO":999,"REV_AT_EPOCH":53519,"BSTAR":0.00013771145,"MEAN_MOTION_DOT":2.9e-7,"MEAN_MOTION_DDOT":0},{"OBJECT_NAME":"DELTA 1 DEB","OBJECT_ID":"1973-086C","EPOCH":"2026-03-09T20:32:54.750336","MEAN_MOTION":12.47711083,"ECCENTRICITY":0.00592479,"INCLINATION":101.7557,"RA_OF_ASC_NODE":28.4969,"ARG_OF_PERICENTER":315.4665,"MEAN_ANOMALY":99.3496,"EPHEMERIS_TYPE":0,"CLASSIFICATION_TYPE":"U","NORAD_CAT_ID":7012,"ELEMENT_SET_NO":999,"REV_AT_EPOCH":38208,"BSTAR":0.00073873419,"MEAN_MOTION_DOT":6.5e-7,"MEAN_MOTION_DDOT":0}]
